<?xml version="1.0" encoding="UTF-8"?>
<ndm xmlns:xsi="http://www.w3.org/2001/XMLSchema-instance" xsi:noNamespaceSchemaLocation="https://sanaregistry.org/r/ndmxml_unqualified/ndmxml-2.0.0-master-2.0.xsd">
<omm id="CCSDS_OMM_VERS" version="2.0">
<header><CREATION_DATE/><ORIGINATOR/></header><body><segment><metadata><OBJECT_NAME>ORBCOMM FM33</OBJECT_NAME><OBJECT_ID>1999-065D</OBJECT_ID><CENTER_NAME>EARTH</CENTER_NAME><REF_FRAME>TEME</REF_FRAME><TIME_SYSTEM>UTC</TIME_SYSTEM><MEAN_ELEMENT_THEORY>SGP4</MEAN_ELEMENT_THEORY></metadata><data><meanElements><EPOCH>2025-09-10T10:08:17.679840</EPOCH><MEAN_MOTION>14.40162570</MEAN_MOTION><ECCENTRICITY>.00076765</ECCENTRICITY><INCLINATION>45.0294</INCLINATION><RA_OF_ASC_NODE>313.6751</RA_OF_ASC_NODE><ARG_OF_PERICENTER>147.7792</ARG_OF_PERICENTER><MEAN_ANOMALY>212.3528</MEAN_ANOMALY></meanElements><tleParameters><EPHEMERIS_TYPE>0</EPHEMERIS_TYPE><CLASSIFICATION_TYPE>U</CLASSIFICATION_TYPE><NORAD_CAT_ID>25983</NORAD_CAT_ID><ELEMENT_SET_NO>999</ELEMENT_SET_NO><REV_AT_EPOCH>34835</REV_AT_EPOCH><BSTAR>.26923154E-3</BSTAR><MEAN_MOTION_DOT>.716E-5</MEAN_MOTION_DOT><MEAN_MOTION_DDOT>0</MEAN_MOTION_DDOT></tleParameters></data></segment></body></omm>
<omm id="CCSDS_OMM_VERS" version="2.0">
<header><CREATION_DATE/><ORIGINATOR/></header><body><segment><metadata><OBJECT_NAME>ORBCOMM FM36</OBJECT_NAME><OBJECT_ID>1999-065E</OBJECT_ID><CENTER_NAME>EARTH</CENTER_NAME><REF_FRAME>TEME</REF_FRAME><TIME_SYSTEM>UTC</TIME_SYSTEM><MEAN_ELEMENT_THEORY>SGP4</MEAN_ELEMENT_THEORY></metadata><data><meanElements><EPOCH>2025-09-10T05:17:16.481760</EPOCH><MEAN_MOTION>14.38316905</MEAN_MOTION><ECCENTRICITY>.00019747</ECCENTRICITY><INCLINATION>45.0399</INCLINATION><RA_OF_ASC_NODE>47.8674</RA_OF_ASC_NODE><ARG_OF_PERICENTER>22.3170</ARG_OF_PERICENTER><MEAN_ANOMALY>337.7765</MEAN_ANOMALY></meanElements><tleParameters><EPHEMERIS_TYPE>0</EPHEMERIS_TYPE><CLASSIFICATION_TYPE>U</CLASSIFICATION_TYPE><NORAD_CAT_ID>25984</NORAD_CAT_ID><ELEMENT_SET_NO>999</ELEMENT_SET_NO><REV_AT_EPOCH>34666</REV_AT_EPOCH><BSTAR>.42867061E-3</BSTAR><MEAN_MOTION_DOT>.1174E-4</MEAN_MOTION_DOT><MEAN_MOTION_DDOT>0</MEAN_MOTION_DDOT></tleParameters></data></segment></body></omm>
<omm id="CCSDS_OMM_VERS" version="2.0">
<header><CREATION_DATE/><ORIGINATOR/></header><body><segment><metadata><OBJECT_NAME>ORBCOMM FM35</OBJECT_NAME><OBJECT_ID>1999-065F</OBJECT_ID><CENTER_NAME>EARTH</CENTER_NAME><REF_FRAME>TEME</REF_FRAME><TIME_SYSTEM>UTC</TIME_SYSTEM><MEAN_ELEMENT_THEORY>SGP4</MEAN_ELEMENT_THEORY></metadata><data><meanElements><EPOCH>2025-09-10T02:56:17.898432</EPOCH><MEAN_MOTION>14.37266380</MEAN_MOTION><ECCENTRICITY>.00042604</ECCENTRICITY><INCLINATION>45.0399</INCLINATION><RA_OF_ASC_NODE>54.0435</RA_OF_ASC_NODE><ARG_OF_PERICENTER>113.0203</ARG_OF_PERICENTER><MEAN_ANOMALY>247.1095</MEAN_ANOMALY></meanElements><tleParameters><EPHEMERIS_TYPE>0</EPHEMERIS_TYPE><CLASSIFICATION_TYPE>U</CLASSIFICATION_TYPE><NORAD_CAT_ID>25985</NORAD_CAT_ID><ELEMENT_SET_NO>999</ELEMENT_SET_NO><REV_AT_EPOCH>34700</REV_AT_EPOCH><BSTAR>.38521201E-3</BSTAR><MEAN_MOTION_DOT>.1016E-4</MEAN_MOTION_DOT><MEAN_MOTION_DDOT>0</MEAN_MOTION_DDOT></tleParameters></data></segment></body></omm>
<omm id="CCSDS_OMM_VERS" version="2.0">
<header><CREATION_DATE/><ORIGINATOR/></header><body><segment><metadata><OBJECT_NAME>ORBCOMM FM34</OBJECT_NAME><OBJECT_ID>1999-065G</OBJECT_ID><CENTER_NAME>EARTH</CENTER_NAME><REF_FRAME>TEME</REF_FRAME><TIME_SYSTEM>UTC</TIME_SYSTEM><MEAN_ELEMENT_THEORY>SGP4</MEAN_ELEMENT_THEORY></metadata><data><meanElements><EPOCH>2025-09-09T22:45:55.182240</EPOCH><MEAN_MOTION>14.37266305</MEAN_MOTION><ECCENTRICITY>.00036377</ECCENTRICITY><INCLINATION>45.0396</INCLINATION><RA_OF_ASC_NODE>55.3223</RA_OF_ASC_NODE><ARG_OF_PERICENTER>63.1969</ARG_OF_PERICENTER><MEAN_ANOMALY>296.9251</MEAN_ANOMALY></meanElements><tleParameters><EPHEMERIS_TYPE>0</EPHEMERIS_TYPE><CLASSIFICATION_TYPE>U</CLASSIFICATION_TYPE><NORAD_CAT_ID>25986</NORAD_CAT_ID><ELEMENT_SET_NO>999</ELEMENT_SET_NO><REV_AT_EPOCH>34709</REV_AT_EPOCH><BSTAR>.30260478E-3</BSTAR><MEAN_MOTION_DOT>.768E-5</MEAN_MOTION_DOT><MEAN_MOTION_DDOT>0</MEAN_MOTION_DDOT></tleParameters></data></segment></body></omm>
<omm id="CCSDS_OMM_VERS" version="2.0">
<header><CREATION_DATE/><ORIGINATOR/></header><body><segment><metadata><OBJECT_NAME>ORBCOMM FM38</OBJECT_NAME><OBJECT_ID>2008-031A</OBJECT_ID><CENTER_NAME>EARTH</CENTER_NAME><REF_FRAME>TEME</REF_FRAME><TIME_SYSTEM>UTC</TIME_SYSTEM><MEAN_ELEMENT_THEORY>SGP4</MEAN_ELEMENT_THEORY></metadata><data><meanElements><EPOCH>2025-09-10T12:46:27.689952</EPOCH><MEAN_MOTION>14.81632249</MEAN_MOTION><ECCENTRICITY>.00045836</ECCENTRICITY><INCLINATION>48.4387</INCLINATION><RA_OF_ASC_NODE>268.4382</RA_OF_ASC_NODE><ARG_OF_PERICENTER>39.4162</ARG_OF_PERICENTER><MEAN_ANOMALY>320.7087</MEAN_ANOMALY></meanElements><tleParameters><EPHEMERIS_TYPE>0</EPHEMERIS_TYPE><CLASSIFICATION_TYPE>U</CLASSIFICATION_TYPE><NORAD_CAT_ID>33060</NORAD_CAT_ID><ELEMENT_SET_NO>999</ELEMENT_SET_NO><REV_AT_EPOCH>92740</REV_AT_EPOCH><BSTAR>.18757342E-3</BSTAR><MEAN_MOTION_DOT>.1275E-4</MEAN_MOTION_DOT><MEAN_MOTION_DDOT>0</MEAN_MOTION_DDOT></tleParameters></data></segment></body></omm>
<omm id="CCSDS_OMM_VERS" version="2.0">
<header><CREATION_DATE/><ORIGINATOR/></header><body><segment><metadata><OBJECT_NAME>ORBCOMM FM41</OBJECT_NAME><OBJECT_ID>2008-031B</OBJECT_ID><CENTER_NAME>EARTH</CENTER_NAME><REF_FRAME>TEME</REF_FRAME><TIME_SYSTEM>UTC</TIME_SYSTEM><MEAN_ELEMENT_THEORY>SGP4</MEAN_ELEMENT_THEORY></metadata><data><meanElements><EPOCH>2025-09-10T08:38:13.910208</EPOCH><MEAN_MOTION>14.81205925</MEAN_MOTION><ECCENTRICITY>.00039924</ECCENTRICITY><INCLINATION>48.4424</INCLINATION><RA_OF_ASC_NODE>277.3357</RA_OF_ASC_NODE><ARG_OF_PERICENTER>19.8841</ARG_OF_PERICENTER><MEAN_ANOMALY>353.5771</MEAN_ANOMALY></meanElements><tleParameters><EPHEMERIS_TYPE>0</EPHEMERIS_TYPE><CLASSIFICATION_TYPE>U</CLASSIFICATION_TYPE><NORAD_CAT_ID>33061</NORAD_CAT_ID><ELEMENT_SET_NO>999</ELEMENT_SET_NO><REV_AT_EPOCH>92686</REV_AT_EPOCH><BSTAR>.20637965E-3</BSTAR><MEAN_MOTION_DOT>.1409E-4</MEAN_MOTION_DOT><MEAN_MOTION_DDOT>0</MEAN_MOTION_DDOT></tleParameters></data></segment></body></omm>
<omm id="CCSDS_OMM_VERS" version="2.0">
<header><CREATION_DATE/><ORIGINATOR/></header><body><segment><metadata><OBJECT_NAME>ORBCOMM FM29</OBJECT_NAME><OBJECT_ID>2008-031C</OBJECT_ID><CENTER_NAME>EARTH</CENTER_NAME><REF_FRAME>TEME</REF_FRAME><TIME_SYSTEM>UTC</TIME_SYSTEM><MEAN_ELEMENT_THEORY>SGP4</MEAN_ELEMENT_THEORY></metadata><data><meanElements><EPOCH>2025-09-10T03:22:28.010208</EPOCH><MEAN_MOTION>14.81319880</MEAN_MOTION><ECCENTRICITY>.00056322</ECCENTRICITY><INCLINATION>48.4379</INCLINATION><RA_OF_ASC_NODE>286.0839</RA_OF_ASC_NODE><ARG_OF_PERICENTER>21.5086</ARG_OF_PERICENTER><MEAN_ANOMALY>18.5115</MEAN_ANOMALY></meanElements><tleParameters><EPHEMERIS_TYPE>0</EPHEMERIS_TYPE><CLASSIFICATION_TYPE>U</CLASSIFICATION_TYPE><NORAD_CAT_ID>33062</NORAD_CAT_ID><ELEMENT_SET_NO>999</ELEMENT_SET_NO><REV_AT_EPOCH>92674</REV_AT_EPOCH><BSTAR>.17573135E-3</BSTAR><MEAN_MOTION_DOT>.1171E-4</MEAN_MOTION_DOT><MEAN_MOTION_DDOT>0</MEAN_MOTION_DDOT></tleParameters></data></segment></body></omm>
<omm id="CCSDS_OMM_VERS" version="2.0">
<header><CREATION_DATE/><ORIGINATOR/></header><body><segment><metadata><OBJECT_NAME>ORBCOMM FM39</OBJECT_NAME><OBJECT_ID>2008-031D</OBJECT_ID><CENTER_NAME>EARTH</CENTER_NAME><REF_FRAME>TEME</REF_FRAME><TIME_SYSTEM>UTC</TIME_SYSTEM><MEAN_ELEMENT_THEORY>SGP4</MEAN_ELEMENT_THEORY></metadata><data><meanElements><EPOCH>2025-09-10T10:48:46.608480</EPOCH><MEAN_MOTION>14.79837414</MEAN_MOTION><ECCENTRICITY>.00068224</ECCENTRICITY><INCLINATION>48.4413</INCLINATION><RA_OF_ASC_NODE>309.8244</RA_OF_ASC_NODE><ARG_OF_PERICENTER>355.5412</ARG_OF_PERICENTER><MEAN_ANOMALY>4.5441</MEAN_ANOMALY></meanElements><tleParameters><EPHEMERIS_TYPE>0</EPHEMERIS_TYPE><CLASSIFICATION_TYPE>U</CLASSIFICATION_TYPE><NORAD_CAT_ID>33063</NORAD_CAT_ID><ELEMENT_SET_NO>999</ELEMENT_SET_NO><REV_AT_EPOCH>92642</REV_AT_EPOCH><BSTAR>.19268355E-3</BSTAR><MEAN_MOTION_DOT>.1255E-4</MEAN_MOTION_DOT><MEAN_MOTION_DDOT>0</MEAN_MOTION_DDOT></tleParameters></data></segment></body></omm>

</ndm>
