ORBCOMM FM33            
1 25983U 99065D   25253.42242685  .00000716  00000+0  26923-3 0  9994
2 25983  45.0294 313.6751 0007676 147.7792 212.3528 14.40162570348358
ORBCOMM FM36            
1 25984U 99065E   25253.22032965  .00001174  00000+0  42867-3 0  9995
2 25984  45.0399  47.8674 0001974  22.3170 337.7765 14.38316905346665
ORBCOMM FM35            
1 25985U 99065F   25253.12242938  .00001016  00000+0  38521-3 0  9995
2 25985  45.0399  54.0435 0004260 113.0203 247.1095 14.37266380347006
ORBCOMM FM34            
1 25986U 99065G   25252.94855535  .00000768  00000+0  30260-3 0  9993
2 25986  45.0396  55.3223 0003637  63.1969 296.9251 14.37266305347096
ORBCOMM FM38            
1 33060U 08031A   25253.53226493  .00001275  00000+0  18757-3 0  9990
2 33060  48.4387 268.4382 0004583  39.4162 320.7087 14.81632249927405
ORBCOMM FM41            
1 33061U 08031B   25253.35988322  .00001409  00000+0  20638-3 0  9997
2 33061  48.4424 277.3357 0003992  19.8841 353.5771 14.81205925926868
ORBCOMM FM29            
1 33062U 08031C   25253.14060197  .00001171  00000+0  17573-3 0  9996
2 33062  48.4379 286.0839 0005632  21.5086  18.5115 14.81319880926747
ORBCOMM FM39            
1 33063U 08031D   25253.45053945  .00001255  00000+0  19268-3 0  9990
2 33063  48.4413 309.8244 0006822 355.5412   4.5441 14.79837414926423
